[{"OBJECT_NAME":"OBJECT C","OBJECT_ID":"2024-016C","EPOCH":"2026-03-09T22:43:52.910688","MEAN_MOTION":15.23604434,"ECCENTRICITY":0.0010855,"INCLINATION":97.441,"RA_OF_ASC_NODE":150.2614,"ARG_OF_PERICENTER":179.1446,"MEAN_ANOMALY":180.9812,"EPHEMERIS_TYPE":0,"CLASSIFICATION_TYPE":"U","NORAD_CAT_ID":58822,"ELEMENT_SET_NO":999,"REV_AT_EPOCH":11801,"BSTAR":0.0004308258,"MEAN_MOTION_DOT":0.00010264,"MEAN_MOTION_DDOT":0},{"OBJECT_NAME":"TOMORROW-S9","OBJECT_ID":"2025-248S","EPOCH":"2026-03-09T00:52:57.672768","MEAN_MOTION":15.1924557,"ECCENTRICITY":0.00037045,"INCLINATION":45.4048,"RA_OF_ASC_NODE":298.2875,"ARG_OF_PERICENTER":215.4557,"MEAN_ANOMALY":144.6083,"EPHEMERIS_TYPE":0,"CLASSIFICATION_TYPE":"U","NORAD_CAT_ID":66309,"ELEMENT_SET_NO":999,"REV_AT_EPOCH":1927,"BSTAR":0.00031245466,"MEAN_MOTION_DOT":6.428e-5,"MEAN_MOTION_DDOT":0}]
